[{"OBJECT_NAME":"STARLINK-2604","OBJECT_ID":"2021-038X","EPOCH":"2025-12-17T05:57:27.382176","MEAN_MOTION":15.06396044,"ECCENTRICITY":0.00014948,"INCLINATION":53.0578,"RA_OF_ASC_NODE":2.0601,"ARG_OF_PERICENTER":93.8486,"MEAN_ANOMALY":266.2674,"EPHEMERIS_TYPE":0,"CLASSIFICATION_TYPE":"U","NORAD_CAT_ID":48374,"ELEMENT_SET_NO":999,"REV_AT_EPOCH":25473,"BSTAR":0.000213242,"MEAN_MOTION_DOT":2.896e-5,"MEAN_MOTION_DDOT":0},{"OBJECT_NAME":"STARLINK-2603","OBJECT_ID":"2021-038Y","EPOCH":"2025-12-17T08:15:22.937472","MEAN_MOTION":15.06409032,"ECCENTRICITY":0.00014083,"INCLINATION":53.0556,"RA_OF_ASC_NODE":1.2821,"ARG_OF_PERICENTER":83.0719,"MEAN_ANOMALY":277.043,"EPHEMERIS_TYPE":0,"CLASSIFICATION_TYPE":"U","NORAD_CAT_ID":48375,"ELEMENT_SET_NO":999,"REV_AT_EPOCH":25475,"BSTAR":0.00025105251,"MEAN_MOTION_DOT":3.461e-5,"MEAN_MOTION_DDOT":0},{"OBJECT_NAME":"STARLINK-2610","OBJECT_ID":"2021-038Z","EPOCH":"2025-12-17T08:10:04.919808","MEAN_MOTION":15.06400262,"ECCENTRICITY":0.00013532,"INCLINATION":53.0575,"RA_OF_ASC_NODE":1.2983,"ARG_OF_PERICENTER":88.0767,"MEAN_ANOMALY":272.0377,"EPHEMERIS_TYPE":0,"CLASSIFICATION_TYPE":"U","NORAD_CAT_ID":48376,"ELEMENT_SET_NO":999,"REV_AT_EPOCH":25475,"BSTAR":0.00013595598,"MEAN_MOTION_DOT":1.744e-5,"MEAN_MOTION_DDOT":0},{"OBJECT_NAME":"STARLINK-2499","OBJECT_ID":"2021-038AA","EPOCH":"2025-12-17T07:38:19.970880","MEAN_MOTION":15.06391954,"ECCENTRICITY":0.00012658,"INCLINATION":53.0551,"RA_OF_ASC_NODE":1.9007,"ARG_OF_PERICENTER":79.3332,"MEAN_ANOMALY":280.7799,"EPHEMERIS_TYPE":0,"CLASSIFICATION_TYPE":"U","NORAD_CAT_ID":48377,"ELEMENT_SET_NO":999,"REV_AT_EPOCH":25474,"BSTAR":0.00057974812,"MEAN_MOTION_DOT":8.362e-5,"MEAN_MOTION_DDOT":0},{"OBJECT_NAME":"STARLINK-2526","OBJECT_ID":"2021-038AB","EPOCH":"2025-12-17T07:59:27.856320","MEAN_MOTION":15.06395743,"ECCENTRICITY":0.00013727,"INCLINATION":53.0575,"RA_OF_ASC_NODE":1.3351,"ARG_OF_PERICENTER":91.7582,"MEAN_ANOMALY":268.3565,"EPHEMERIS_TYPE":0,"CLASSIFICATION_TYPE":"U","NORAD_CAT_ID":48378,"ELEMENT_SET_NO":999,"REV_AT_EPOCH":25475,"BSTAR":0.00012209045,"MEAN_MOTION_DOT":1.537e-5,"MEAN_MOTION_DDOT":0},{"OBJECT_NAME":"STARLINK-2612","OBJECT_ID":"2021-038AC","EPOCH":"2025-12-17T07:54:09.166464","MEAN_MOTION":15.06412894,"ECCENTRICITY":0.0001439,"INCLINATION":53.0568,"RA_OF_ASC_NODE":1.3491,"ARG_OF_PERICENTER":90.4923,"MEAN_ANOMALY":269.6231,"EPHEMERIS_TYPE":0,"CLASSIFICATION_TYPE":"U","NORAD_CAT_ID":48379,"ELEMENT_SET_NO":999,"REV_AT_EPOCH":25475,"BSTAR":0.00036937416,"MEAN_MOTION_DOT":5.226e-5,"MEAN_MOTION_DDOT":0},{"OBJECT_NAME":"STARLINK-2614","OBJECT_ID":"2021-038AD","EPOCH":"2025-12-17T06:29:19.709664","MEAN_MOTION":15.06399742,"ECCENTRICITY":0.00016653,"INCLINATION":53.0562,"RA_OF_ASC_NODE":2.1275,"ARG_OF_PERICENTER":81.424,"MEAN_ANOMALY":278.6937,"EPHEMERIS_TYPE":0,"CLASSIFICATION_TYPE":"U","NORAD_CAT_ID":48380,"ELEMENT_SET_NO":999,"REV_AT_EPOCH":25473,"BSTAR":0.00011467147,"MEAN_MOTION_DOT":1.427e-5,"MEAN_MOTION_DDOT":0},{"OBJECT_NAME":"STARLINK-2630","OBJECT_ID":"2021-038AE","EPOCH":"2025-12-17T07:48:51.602400","MEAN_MOTION":15.06397286,"ECCENTRICITY":0.00013514,"INCLINATION":53.0572,"RA_OF_ASC_NODE":1.3682,"ARG_OF_PERICENTER":89.1023,"MEAN_ANOMALY":271.012,"EPHEMERIS_TYPE":0,"CLASSIFICATION_TYPE":"U","NORAD_CAT_ID":48381,"ELEMENT_SET_NO":999,"REV_AT_EPOCH":25475,"BSTAR":0.00026518386,"MEAN_MOTION_DOT":3.67e-5,"MEAN_MOTION_DDOT":0},{"OBJECT_NAME":"STARLINK-2585","OBJECT_ID":"2021-038AF","EPOCH":"2025-12-17T07:43:32.927232","MEAN_MOTION":15.06405255,"ECCENTRICITY":0.00018063,"INCLINATION":53.0586,"RA_OF_ASC_NODE":1.3795,"ARG_OF_PERICENTER":103.9837,"MEAN_ANOMALY":256.1353,"EPHEMERIS_TYPE":0,"CLASSIFICATION_TYPE":"U","NORAD_CAT_ID":48382,"ELEMENT_SET_NO":999,"REV_AT_EPOCH":25475,"BSTAR":3.432437e-6,"MEAN_MOTION_DOT":-2.31e-6,"MEAN_MOTION_DDOT":0},{"OBJECT_NAME":"STARLINK-2598","OBJECT_ID":"2021-038AJ","EPOCH":"2025-12-17T07:27:36.294336","MEAN_MOTION":15.06422063,"ECCENTRICITY":6.441e-5,"INCLINATION":53.0562,"RA_OF_ASC_NODE":1.432,"ARG_OF_PERICENTER":85.5733,"MEAN_ANOMALY":274.533,"EPHEMERIS_TYPE":0,"CLASSIFICATION_TYPE":"U","NORAD_CAT_ID":48385,"ELEMENT_SET_NO":999,"REV_AT_EPOCH":25597,"BSTAR":0.0012731196,"MEAN_MOTION_DOT":0.00018744,"MEAN_MOTION_DDOT":0},{"OBJECT_NAME":"STARLINK-2606","OBJECT_ID":"2021-038AK","EPOCH":"2025-12-17T07:09:42.862464","MEAN_MOTION":15.06401348,"ECCENTRICITY":0.00016197,"INCLINATION":53.057,"RA_OF_ASC_NODE":356.4984,"ARG_OF_PERICENTER":88.9199,"MEAN_ANOMALY":271.1975,"EPHEMERIS_TYPE":0,"CLASSIFICATION_TYPE":"U","NORAD_CAT_ID":48386,"ELEMENT_SET_NO":999,"REV_AT_EPOCH":25481,"BSTAR":0.00016667089,"MEAN_MOTION_DOT":2.202e-5,"MEAN_MOTION_DDOT":0},{"OBJECT_NAME":"STARLINK-2594","OBJECT_ID":"2021-038AM","EPOCH":"2025-12-17T07:46:52.287456","MEAN_MOTION":15.06414527,"ECCENTRICITY":0.00013967,"INCLINATION":53.0557,"RA_OF_ASC_NODE":356.3727,"ARG_OF_PERICENTER":83.8806,"MEAN_ANOMALY":276.2342,"EPHEMERIS_TYPE":0,"CLASSIFICATION_TYPE":"U","NORAD_CAT_ID":48388,"ELEMENT_SET_NO":999,"REV_AT_EPOCH":25482,"BSTAR":0.00046854732,"MEAN_MOTION_DOT":6.707e-5,"MEAN_MOTION_DDOT":0},{"OBJECT_NAME":"STARLINK-2586","OBJECT_ID":"2021-038AP","EPOCH":"2025-12-17T07:23:38.440320","MEAN_MOTION":15.06393515,"ECCENTRICITY":0.00012788,"INCLINATION":53.0571,"RA_OF_ASC_NODE":351.4463,"ARG_OF_PERICENTER":94.1411,"MEAN_ANOMALY":265.9724,"EPHEMERIS_TYPE":0,"CLASSIFICATION_TYPE":"U","NORAD_CAT_ID":48390,"ELEMENT_SET_NO":999,"REV_AT_EPOCH":25610,"BSTAR":8.4034956e-5,"MEAN_MOTION_DOT":9.7e-6,"MEAN_MOTION_DDOT":0},{"OBJECT_NAME":"STARLINK-2607","OBJECT_ID":"2021-038AQ","EPOCH":"2025-12-17T07:18:19.534464","MEAN_MOTION":15.06408746,"ECCENTRICITY":0.00015576,"INCLINATION":53.0553,"RA_OF_ASC_NODE":351.4609,"ARG_OF_PERICENTER":81.5418,"MEAN_ANOMALY":278.5747,"EPHEMERIS_TYPE":0,"CLASSIFICATION_TYPE":"U","NORAD_CAT_ID":48391,"ELEMENT_SET_NO":999,"REV_AT_EPOCH":25610,"BSTAR":0.00026818683,"MEAN_MOTION_DOT":3.716e-5,"MEAN_MOTION_DDOT":0},{"OBJECT_NAME":"STARLINK-2605","OBJECT_ID":"2021-038AR","EPOCH":"2025-12-17T07:13:01.304256","MEAN_MOTION":15.06397349,"ECCENTRICITY":0.00014233,"INCLINATION":53.0568,"RA_OF_ASC_NODE":351.4768,"ARG_OF_PERICENTER":76.0838,"MEAN_ANOMALY":284.031,"EPHEMERIS_TYPE":0,"CLASSIFICATION_TYPE":"U","NORAD_CAT_ID":48392,"ELEMENT_SET_NO":999,"REV_AT_EPOCH":25610,"BSTAR":1.140992e-5,"MEAN_MOTION_DOT":-1.12e-6,"MEAN_MOTION_DDOT":0},{"OBJECT_NAME":"STARLINK-2574","OBJECT_ID":"2021-038AU","EPOCH":"2025-12-17T06:30:40.948128","MEAN_MOTION":15.06395797,"ECCENTRICITY":0.00014333,"INCLINATION":53.0568,"RA_OF_ASC_NODE":352.2357,"ARG_OF_PERICENTER":92.4714,"MEAN_ANOMALY":267.6439,"EPHEMERIS_TYPE":0,"CLASSIFICATION_TYPE":"U","NORAD_CAT_ID":48395,"ELEMENT_SET_NO":999,"REV_AT_EPOCH":25609,"BSTAR":7.528303e-5,"MEAN_MOTION_DOT":8.4e-6,"MEAN_MOTION_DDOT":0},{"OBJECT_NAME":"STARLINK-2575","OBJECT_ID":"2021-038AV","EPOCH":"2025-12-17T06:57:06.245568","MEAN_MOTION":15.0639979,"ECCENTRICITY":0.00013797,"INCLINATION":53.0555,"RA_OF_ASC_NODE":351.527,"ARG_OF_PERICENTER":87.6002,"MEAN_ANOMALY":272.5145,"EPHEMERIS_TYPE":0,"CLASSIFICATION_TYPE":"U","NORAD_CAT_ID":48396,"ELEMENT_SET_NO":999,"REV_AT_EPOCH":25610,"BSTAR":0.00018111998,"MEAN_MOTION_DOT":2.417e-5,"MEAN_MOTION_DDOT":0},{"OBJECT_NAME":"STARLINK-2590","OBJECT_ID":"2021-038AW","EPOCH":"2025-12-17T06:51:47.413152","MEAN_MOTION":15.06398725,"ECCENTRICITY":0.00013726,"INCLINATION":53.0563,"RA_OF_ASC_NODE":351.5435,"ARG_OF_PERICENTER":90.4911,"MEAN_ANOMALY":269.6235,"EPHEMERIS_TYPE":0,"CLASSIFICATION_TYPE":"U","NORAD_CAT_ID":48397,"ELEMENT_SET_NO":999,"REV_AT_EPOCH":25610,"BSTAR":4.1065252e-5,"MEAN_MOTION_DOT":3.3e-6,"MEAN_MOTION_DDOT":0},{"OBJECT_NAME":"STARLINK-2588","OBJECT_ID":"2021-038AX","EPOCH":"2025-12-17T06:46:29.051616","MEAN_MOTION":15.06401508,"ECCENTRICITY":0.00014533,"INCLINATION":53.0558,"RA_OF_ASC_NODE":351.5595,"ARG_OF_PERICENTER":84.0075,"MEAN_ANOMALY":276.108,"EPHEMERIS_TYPE":0,"CLASSIFICATION_TYPE":"U","NORAD_CAT_ID":48398,"ELEMENT_SET_NO":999,"REV_AT_EPOCH":25610,"BSTAR":0.00016821673,"MEAN_MOTION_DOT":2.225e-5,"MEAN_MOTION_DDOT":0},{"OBJECT_NAME":"STARLINK-2587","OBJECT_ID":"2021-038AY","EPOCH":"2025-12-17T06:41:10.501728","MEAN_MOTION":15.06396179,"ECCENTRICITY":0.000148,"INCLINATION":53.0558,"RA_OF_ASC_NODE":351.5754,"ARG_OF_PERICENTER":86.4693,"MEAN_ANOMALY":273.6466,"EPHEMERIS_TYPE":0,"CLASSIFICATION_TYPE":"U","NORAD_CAT_ID":48399,"ELEMENT_SET_NO":999,"REV_AT_EPOCH":25609,"BSTAR":8.2962051e-5,"MEAN_MOTION_DOT":9.54e-6,"MEAN_MOTION_DDOT":0},{"OBJECT_NAME":"STARLINK-2576","OBJECT_ID":"2021-038AZ","EPOCH":"2025-12-17T06:35:51.499104","MEAN_MOTION":15.06401671,"ECCENTRICITY":0.00013518,"INCLINATION":53.0567,"RA_OF_ASC_NODE":351.5945,"ARG_OF_PERICENTER":88.4971,"MEAN_ANOMALY":271.6173,"EPHEMERIS_TYPE":0,"CLASSIFICATION_TYPE":"U","NORAD_CAT_ID":48400,"ELEMENT_SET_NO":999,"REV_AT_EPOCH":25488,"BSTAR":0.00017156449,"MEAN_MOTION_DOT":2.275e-5,"MEAN_MOTION_DDOT":0},{"OBJECT_NAME":"STARLINK-2571","OBJECT_ID":"2021-038BA","EPOCH":"2025-12-17T07:28:56.835552","MEAN_MOTION":15.06392031,"ECCENTRICITY":0.0001293,"INCLINATION":53.0566,"RA_OF_ASC_NODE":351.4371,"ARG_OF_PERICENTER":90.0466,"MEAN_ANOMALY":270.0671,"EPHEMERIS_TYPE":0,"CLASSIFICATION_TYPE":"U","NORAD_CAT_ID":48401,"ELEMENT_SET_NO":999,"REV_AT_EPOCH":25488,"BSTAR":8.0778358e-5,"MEAN_MOTION_DOT":9.22e-6,"MEAN_MOTION_DDOT":0},{"OBJECT_NAME":"STARLINK-2593","OBJECT_ID":"2021-038BD","EPOCH":"2025-12-17T07:55:28.841952","MEAN_MOTION":15.0640071,"ECCENTRICITY":0.00014684,"INCLINATION":53.0561,"RA_OF_ASC_NODE":351.3443,"ARG_OF_PERICENTER":83.5179,"MEAN_ANOMALY":276.5977,"EPHEMERIS_TYPE":0,"CLASSIFICATION_TYPE":"U","NORAD_CAT_ID":48404,"ELEMENT_SET_NO":999,"REV_AT_EPOCH":25489,"BSTAR":0.000202937,"MEAN_MOTION_DOT":2.743e-5,"MEAN_MOTION_DDOT":0}]
